[{"OBJECT_NAME":"IRIDIUM 151","OBJECT_ID":"2017-083E","EPOCH":"2026-04-27T03:46:15.152448","MEAN_MOTION":14.34218108,"ECCENTRICITY":0.00021323,"INCLINATION":86.3985,"RA_OF_ASC_NODE":343.3991,"ARG_OF_PERICENTER":84.5673,"MEAN_ANOMALY":275.5766,"EPHEMERIS_TYPE":0,"CLASSIFICATION_TYPE":"U","NORAD_CAT_ID":43074,"ELEMENT_SET_NO":999,"REV_AT_EPOCH":43682,"BSTAR":2.4992018e-5,"MEAN_MOTION_DOT":9.0e-7,"MEAN_MOTION_DDOT":0},{"OBJECT_NAME":"IRIDIUM 134","OBJECT_ID":"2017-083F","EPOCH":"2026-04-27T03:00:35.178624","MEAN_MOTION":14.34218074,"ECCENTRICITY":0.0002276,"INCLINATION":86.3989,"RA_OF_ASC_NODE":343.42,"ARG_OF_PERICENTER":85.8525,"MEAN_ANOMALY":274.2931,"EPHEMERIS_TYPE":0,"CLASSIFICATION_TYPE":"U","NORAD_CAT_ID":43075,"ELEMENT_SET_NO":999,"REV_AT_EPOCH":43678,"BSTAR":3.576377e-5,"MEAN_MOTION_DOT":1.2e-6,"MEAN_MOTION_DDOT":0},{"OBJECT_NAME":"IRIDIUM 137","OBJECT_ID":"2017-083G","EPOCH":"2026-04-27T01:38:23.083872","MEAN_MOTION":14.34218058,"ECCENTRICITY":0.00020876,"INCLINATION":86.3993,"RA_OF_ASC_NODE":343.5354,"ARG_OF_PERICENTER":72.6011,"MEAN_ANOMALY":287.5413,"EPHEMERIS_TYPE":0,"CLASSIFICATION_TYPE":"U","NORAD_CAT_ID":43076,"ELEMENT_SET_NO":999,"REV_AT_EPOCH":43684,"BSTAR":1.3027494e-5,"MEAN_MOTION_DOT":5.6e-7,"MEAN_MOTION_DDOT":0},{"OBJECT_NAME":"IRIDIUM 141","OBJECT_ID":"2017-083H","EPOCH":"2026-04-27T03:09:42.945984","MEAN_MOTION":14.34219169,"ECCENTRICITY":0.00020749,"INCLINATION":86.3985,"RA_OF_ASC_NODE":343.3426,"ARG_OF_PERICENTER":87.28,"MEAN_ANOMALY":272.8634,"EPHEMERIS_TYPE":0,"CLASSIFICATION_TYPE":"U","NORAD_CAT_ID":43077,"ELEMENT_SET_NO":999,"REV_AT_EPOCH":43685,"BSTAR":7.1193047e-5,"MEAN_MOTION_DOT":2.19e-6,"MEAN_MOTION_DDOT":0},{"OBJECT_NAME":"IRIDIUM 153","OBJECT_ID":"2017-083J","EPOCH":"2026-04-27T07:02:15.389088","MEAN_MOTION":14.3421785,"ECCENTRICITY":0.00021421,"INCLINATION":86.3936,"RA_OF_ASC_NODE":311.7652,"ARG_OF_PERICENTER":95.0551,"MEAN_ANOMALY":265.0889,"EPHEMERIS_TYPE":0,"CLASSIFICATION_TYPE":"U","NORAD_CAT_ID":43078,"ELEMENT_SET_NO":999,"REV_AT_EPOCH":43798,"BSTAR":1.0428518e-5,"MEAN_MOTION_DOT":4.9e-7,"MEAN_MOTION_DDOT":0},{"OBJECT_NAME":"IRIDIUM 131","OBJECT_ID":"2017-083K","EPOCH":"2026-04-27T02:51:27.157248","MEAN_MOTION":14.34217805,"ECCENTRICITY":0.00020746,"INCLINATION":86.3992,"RA_OF_ASC_NODE":343.5305,"ARG_OF_PERICENTER":86.0871,"MEAN_ANOMALY":274.0562,"EPHEMERIS_TYPE":0,"CLASSIFICATION_TYPE":"U","NORAD_CAT_ID":43079,"ELEMENT_SET_NO":999,"REV_AT_EPOCH":43678,"BSTAR":1.7996832e-5,"MEAN_MOTION_DOT":7.0e-7,"MEAN_MOTION_DDOT":0},{"OBJECT_NAME":"IRIDIUM 144","OBJECT_ID":"2018-030A","EPOCH":"2026-04-27T07:11:23.691264","MEAN_MOTION":14.3421744,"ECCENTRICITY":0.00022263,"INCLINATION":86.3933,"RA_OF_ASC_NODE":311.6929,"ARG_OF_PERICENTER":86.0487,"MEAN_ANOMALY":274.0963,"EPHEMERIS_TYPE":0,"CLASSIFICATION_TYPE":"U","NORAD_CAT_ID":43249,"ELEMENT_SET_NO":999,"REV_AT_EPOCH":42284,"BSTAR":1.9225974e-5,"MEAN_MOTION_DOT":7.4e-7,"MEAN_MOTION_DDOT":0},{"OBJECT_NAME":"IRIDIUM 149","OBJECT_ID":"2018-030B","EPOCH":"2026-04-27T05:40:03.663264","MEAN_MOTION":14.34217597,"ECCENTRICITY":0.0002073,"INCLINATION":86.3932,"RA_OF_ASC_NODE":311.687,"ARG_OF_PERICENTER":90.3553,"MEAN_ANOMALY":269.788,"EPHEMERIS_TYPE":0,"CLASSIFICATION_TYPE":"U","NORAD_CAT_ID":43250,"ELEMENT_SET_NO":999,"REV_AT_EPOCH":42285,"BSTAR":2.1565091e-5,"MEAN_MOTION_DOT":8.0e-7,"MEAN_MOTION_DDOT":0},{"OBJECT_NAME":"IRIDIUM 157","OBJECT_ID":"2018-030C","EPOCH":"2026-04-27T06:07:27.467328","MEAN_MOTION":14.34217925,"ECCENTRICITY":0.00021693,"INCLINATION":86.3934,"RA_OF_ASC_NODE":311.7311,"ARG_OF_PERICENTER":89.2794,"MEAN_ANOMALY":270.865,"EPHEMERIS_TYPE":0,"CLASSIFICATION_TYPE":"U","NORAD_CAT_ID":43251,"ELEMENT_SET_NO":999,"REV_AT_EPOCH":42283,"BSTAR":2.0317152e-5,"MEAN_MOTION_DOT":7.7e-7,"MEAN_MOTION_DDOT":0},{"OBJECT_NAME":"IRIDIUM 140","OBJECT_ID":"2018-030D","EPOCH":"2026-04-27T06:34:51.643776","MEAN_MOTION":14.34217724,"ECCENTRICITY":0.00022278,"INCLINATION":86.3935,"RA_OF_ASC_NODE":311.7358,"ARG_OF_PERICENTER":89.0028,"MEAN_ANOMALY":271.1423,"EPHEMERIS_TYPE":0,"CLASSIFICATION_TYPE":"U","NORAD_CAT_ID":43252,"ELEMENT_SET_NO":999,"REV_AT_EPOCH":42289,"BSTAR":2.2455532e-5,"MEAN_MOTION_DOT":8.3e-7,"MEAN_MOTION_DDOT":0},{"OBJECT_NAME":"IRIDIUM 145","OBJECT_ID":"2018-030E","EPOCH":"2026-04-27T06:16:35.502528","MEAN_MOTION":14.3421791,"ECCENTRICITY":0.00023574,"INCLINATION":86.3935,"RA_OF_ASC_NODE":311.7135,"ARG_OF_PERICENTER":82.402,"MEAN_ANOMALY":277.7443,"EPHEMERIS_TYPE":0,"CLASSIFICATION_TYPE":"U","NORAD_CAT_ID":43253,"ELEMENT_SET_NO":999,"REV_AT_EPOCH":42282,"BSTAR":1.8974658e-5,"MEAN_MOTION_DOT":7.3e-7,"MEAN_MOTION_DDOT":0},{"OBJECT_NAME":"IRIDIUM 146","OBJECT_ID":"2018-030F","EPOCH":"2026-04-27T00:47:47.474304","MEAN_MOTION":14.34217924,"ECCENTRICITY":0.00022226,"INCLINATION":86.3934,"RA_OF_ASC_NODE":311.8214,"ARG_OF_PERICENTER":86.4777,"MEAN_ANOMALY":273.6673,"EPHEMERIS_TYPE":0,"CLASSIFICATION_TYPE":"U","NORAD_CAT_ID":43254,"ELEMENT_SET_NO":999,"REV_AT_EPOCH":42280,"BSTAR":1.856449e-5,"MEAN_MOTION_DOT":7.2e-7,"MEAN_MOTION_DDOT":0},{"OBJECT_NAME":"IRIDIUM 148","OBJECT_ID":"2018-030G","EPOCH":"2026-04-27T06:44:00.837600","MEAN_MOTION":14.34215713,"ECCENTRICITY":0.00020874,"INCLINATION":86.3936,"RA_OF_ASC_NODE":311.7603,"ARG_OF_PERICENTER":86.6823,"MEAN_ANOMALY":273.4612,"EPHEMERIS_TYPE":0,"CLASSIFICATION_TYPE":"U","NORAD_CAT_ID":43255,"ELEMENT_SET_NO":999,"REV_AT_EPOCH":42287,"BSTAR":1.8724711e-5,"MEAN_MOTION_DOT":7.2e-7,"MEAN_MOTION_DDOT":0},{"OBJECT_NAME":"IRIDIUM 142","OBJECT_ID":"2018-030H","EPOCH":"2026-04-27T00:56:56.806368","MEAN_MOTION":14.34215205,"ECCENTRICITY":0.00022856,"INCLINATION":86.3932,"RA_OF_ASC_NODE":311.752,"ARG_OF_PERICENTER":84.3492,"MEAN_ANOMALY":275.7964,"EPHEMERIS_TYPE":0,"CLASSIFICATION_TYPE":"U","NORAD_CAT_ID":43256,"ELEMENT_SET_NO":999,"REV_AT_EPOCH":42280,"BSTAR":1.6172483e-5,"MEAN_MOTION_DOT":6.5e-7,"MEAN_MOTION_DDOT":0},{"OBJECT_NAME":"IRIDIUM 150","OBJECT_ID":"2018-030J","EPOCH":"2026-04-27T06:53:07.384128","MEAN_MOTION":14.34217572,"ECCENTRICITY":0.00020892,"INCLINATION":86.3931,"RA_OF_ASC_NODE":311.763,"ARG_OF_PERICENTER":88.317,"MEAN_ANOMALY":271.8265,"EPHEMERIS_TYPE":0,"CLASSIFICATION_TYPE":"U","NORAD_CAT_ID":43257,"ELEMENT_SET_NO":999,"REV_AT_EPOCH":42286,"BSTAR":-6.443804e-6,"MEAN_MOTION_DOT":2.0e-8,"MEAN_MOTION_DDOT":0},{"OBJECT_NAME":"IRIDIUM 143","OBJECT_ID":"2018-030K","EPOCH":"2026-04-27T01:24:19.420704","MEAN_MOTION":14.3421781,"ECCENTRICITY":0.00022526,"INCLINATION":86.3939,"RA_OF_ASC_NODE":311.9493,"ARG_OF_PERICENTER":86.3097,"MEAN_ANOMALY":273.8356,"EPHEMERIS_TYPE":0,"CLASSIFICATION_TYPE":"U","NORAD_CAT_ID":43258,"ELEMENT_SET_NO":999,"REV_AT_EPOCH":42276,"BSTAR":4.394201e-6,"MEAN_MOTION_DOT":3.2e-7,"MEAN_MOTION_DDOT":0},{"OBJECT_NAME":"IRIDIUM 161","OBJECT_ID":"2018-047C","EPOCH":"2026-04-27T05:03:35.213472","MEAN_MOTION":14.432817,"ECCENTRICITY":0.00020297,"INCLINATION":86.4446,"RA_OF_ASC_NODE":109.7898,"ARG_OF_PERICENTER":91.3159,"MEAN_ANOMALY":268.8274,"EPHEMERIS_TYPE":0,"CLASSIFICATION_TYPE":"U","NORAD_CAT_ID":43478,"ELEMENT_SET_NO":999,"REV_AT_EPOCH":41778,"BSTAR":5.3866632e-5,"MEAN_MOTION_DOT":2.01e-6,"MEAN_MOTION_DDOT":0}]
